{
  "type": "FeatureCollection",
  "features": [
    {
      "type": "Feature",
      "properties": {
        "id": "valencia_poblats_sud_surge",
        "name": "Rambla del Poyo Severe Inundation Corridor",
        "feature_type": "flood_zone",
        "damage_class": "DESTROYED",
        "confidence": 0.965,
        "model_source": "GEO-RESQ Siamese U-Net (Prithvi-100M Finetuned)",
        "huawei_inference": "ModelArts Ascend 910 Service",
        "sensor": "Copernicus Sentinel-1 SAR + Sentinel-2 Multi-spectral",
        "timestamp": "2024-10-30T06:15:00Z",
        "operational_tag": "catastrophic_flash_flood",
        "inundation_depth_est_m": 2.8
      },
      "geometry": {
        "type": "Polygon",
        "coordinates": [
          [
            [
              -0.435,
              39.43
            ],
            [
              -0.405,
              39.442
            ],
            [
              -0.38,
              39.458
            ],
            [
              -0.365,
              39.445
            ],
            [
              -0.395,
              39.425
            ],
            [
              -0.428,
              39.418
            ],
            [
              -0.435,
              39.43
            ]
          ]
        ]
      }
    }
  ]
}